[{"OBJECT_NAME":"ARCSTONE","OBJECT_ID":"2025-135N","EPOCH":"2026-03-09T21:21:29.017152","MEAN_MOTION":15.28638458,"ECCENTRICITY":0.00041199,"INCLINATION":97.4495,"RA_OF_ASC_NODE":185.9194,"ARG_OF_PERICENTER":166.7863,"MEAN_ANOMALY":193.3485,"EPHEMERIS_TYPE":0,"CLASSIFICATION_TYPE":"U","NORAD_CAT_ID":64540,"ELEMENT_SET_NO":999,"REV_AT_EPOCH":3984,"BSTAR":0.00094899777,"MEAN_MOTION_DOT":0.00026427,"MEAN_MOTION_DDOT":0},{"OBJECT_NAME":"STARLINK-35325","OBJECT_ID":"2025-235Y","EPOCH":"2026-03-09T18:23:07.225440","MEAN_MOTION":15.30203606,"ECCENTRICITY":9.043e-5,"INCLINATION":53.1588,"RA_OF_ASC_NODE":244.8772,"ARG_OF_PERICENTER":86.5522,"MEAN_ANOMALY":273.5582,"EPHEMERIS_TYPE":0,"CLASSIFICATION_TYPE":"U","NORAD_CAT_ID":66080,"ELEMENT_SET_NO":999,"REV_AT_EPOCH":2293,"BSTAR":0.00073661444,"MEAN_MOTION_DOT":0.00021523,"MEAN_MOTION_DDOT":0}]
